NORAD_CAT_ID,OBJECT_NAME,OBJECT_TYPE,EPOCH,MEAN_MOTION,ECCENTRICITY,INCLINATION,RA_OF_ASC_NODE,ARG_OF_PERICENTER,MEAN_ANOMALY,BSTAR,MEAN_MOTION_DOT,MEAN_MOTION_DDOT,TLE_LINE0,TLE_LINE1,TLE_LINE2,SEMIMAJOR_AXIS,PERIOD,APOGEE,PERIGEE,DECAYED
56810.0,STARLINK-6031,PAYLOAD,2023-12-16 19:59:57,14.98334825,0.00027,69.9993,236.4223,262.1693,97.916,4.4765e-07,-8.8e-07,0.0,0 STARLINK-6031,1 56810U 23078AV  23350.83330644 -.00000088  00000-0  44765-6 0  9993,2 56810  69.9993 236.4223 0002700 262.1693  97.9160 14.98334825 31033,6950.178,96.107,573.92,570.166,0.0
56810.0,STARLINK-6031,PAYLOAD,2023-12-16 21:36:05,14.98354791,0.0002606,69.9994,236.2552,251.8095,108.278,-0.00030397,-3.72e-05,0.0,0 STARLINK-6031,1 56810U 23078AV  23350.90006265 -.00003720  00000-0 -30397-3 0  9990,2 56810  69.9994 236.2552 0002606 251.8095 108.2780 14.98354791 30782,6950.116,96.105,573.792,570.17,0.0
56810.0,STARLINK-6031,PAYLOAD,2023-12-17 02:24:29,14.98337427,0.0002702,69.9994,235.75,262.6403,97.445,5.4373e-05,5.56e-06,0.0,0 STARLINK-6031,1 56810U 23078AV  23351.10034230  .00000556  00000-0  54373-4 0  9999,2 56810  69.9994 235.7500 0002702 262.6403  97.4450 14.98337427 30813,6950.17,96.107,573.913,570.157,0.0
56810.0,STARLINK-6031,PAYLOAD,2023-12-17 20:01:58,14.98328102,0.0002549,69.9998,233.8992,256.8587,103.2287,9.4157e-05,1.031e-05,0.0,0 STARLINK-6031,1 56810U 23078AV  23351.83470614  .00001031  00000-0  94157-4 0  9992,2 56810  69.9998 233.8992 0002549 256.8587 103.2287 14.98328102 31183,6950.199,96.107,573.835,570.292,0.0
56810.0,STARLINK-6031,PAYLOAD,2023-12-17 21:38:06,14.98327657,0.0002215,70.0005,233.7308,246.2347,113.8579,0.00013286,1.493e-05,0.0,0 STARLINK-6031,1 56810U 23078AV  23351.90146525  .00001493  00000-0  13286-3 0  9996,2 56810  70.0005 233.7308 0002215 246.2347 113.8579 14.98327657 30939,6950.2,96.107,573.605,570.526,0.0
56810.0,STARLINK-6031,PAYLOAD,2023-12-18 02:26:30,14.98322454,0.0002287,70.0004,233.2263,257.0748,103.0156,0.0002578,2.984e-05,0.0,0 STARLINK-6031,1 56810U 23078AV  23352.10174589  .00002984  00000-0  25780-3 0  9998,2 56810  70.0004 233.2263 0002287 257.0748 103.0156 14.98322454 30962,6950.216,96.107,573.671,570.492,0.0
56810.0,STARLINK-6031,PAYLOAD,2023-12-18 20:03:59,14.98331708,0.0002286,70.0008,231.3762,233.3427,126.7522,-5.2279e-05,-7.17e-06,0.0,0 STARLINK-6031,1 56810U 23078AV  23352.83610733 -.00000717  00000-0 -52279-4 0  9992,2 56810  70.0008 231.3762 0002286 233.3427 126.7522 14.98331708 31332,6950.188,96.107,573.641,570.464,0.0
56810.0,STARLINK-6031,PAYLOAD,2023-12-18 21:40:07,14.98331793,0.0002333,70.0006,231.2083,242.3972,117.695,-6.4429e-05,-8.62e-06,0.0,0 STARLINK-6031,1 56810U 23078AV  23352.90286755 -.00000862  00000-0 -64429-4 0  9994,2 56810  70.0006 231.2083 0002333 242.3972 117.6950 14.98331793 31083,6950.187,96.107,573.674,570.431,0.0
56810.0,STARLINK-6031,PAYLOAD,2023-12-19 02:28:32,14.98327848,0.0002248,70.0004,230.7019,247.687,112.4051,-8.7194e-05,-1.133e-05,0.0,0 STARLINK-6031,1 56810U 23078AV  23353.10315050 -.00001133  00000-0 -87194-4 0  9994,2 56810  70.0004 230.7019 0002248 247.6870 112.4051 14.98327848 31119,6950.2,96.107,573.627,570.502,0.0
56810.0,STARLINK-6031,PAYLOAD,2023-12-19 20:06:00,14.9833006,0.0002414,69.9997,228.8489,258.7083,101.3805,-4.9156e-05,-6.79e-06,0.0,0 STARLINK-6031,1 56810U 23078AV  23353.83750770 -.00000679  00000-0 -49156-4 0  9996,2 56810  69.9997 228.8489 0002414 258.7083 101.3805 14.98330060 31484,6950.193,96.107,573.735,570.38,0.0
56810.0,STARLINK-6031,PAYLOAD,2023-12-20 00:54:24,14.98329903,0.0002444,69.9996,228.344,256.9416,103.147,-4.7138e-05,-6.55e-06,0.0,0 STARLINK-6031,1 56810U 23078AV  23354.03778754 -.00000655  00000-0 -47138-4 0  9993,2 56810  69.9996 228.3440 0002444 256.9416 103.1470 14.98329903 31255,6950.193,96.107,573.757,570.36,0.0
56810.0,STARLINK-6031,PAYLOAD,2023-12-20 20:08:01,14.983311,0.0002513,69.9994,226.3234,259.5292,100.5584,3.6107e-05,3.38e-06,0.0,0 STARLINK-6031,1 56810U 23078AV  23354.83890438  .00000338  00000-0  36107-4 0  9995,2 56810  69.9994 226.3234 0002513 259.5292 100.5584 14.98331100 31631,6950.189,96.107,573.801,570.308,0.0
56810.0,STARLINK-6031,PAYLOAD,2023-12-20 21:44:09,14.98331117,0.0002511,69.9994,226.1551,259.6693,100.4183,3.6e-05,3.37e-06,0.0,0 STARLINK-6031,1 56810U 23078AV  23354.90566435  .00000337  00000-0  36000-4 0  9991,2 56810  69.9994 226.1551 0002511 259.6693 100.4183 14.98331117 31389,6950.189,96.107,573.8,570.309,0.0
56810.0,STARLINK-6031,PAYLOAD,2023-12-21 00:56:25,14.98332782,0.0002484,69.9995,225.8186,259.3551,100.7329,5.4758e-05,5.61e-06,0.0,0 STARLINK-6031,1 56810U 23078AV  23355.03918255  .00000561  00000-0  54758-4 0  9996,2 56810  69.9995 225.8186 0002484 259.3551 100.7329 14.98332782 31406,6950.184,96.107,573.776,570.323,0.0
56810.0,STARLINK-6031,PAYLOAD,2023-12-21 21:46:13,14.98298974,0.0002591,69.9992,223.629,265.6108,94.4755,-0.00030147,-3.685e-05,0.0,0 STARLINK-6031,1 56810U 23078AV  23355.90709517 -.00003685  00000-0 -30147-3 0  9998,2 56810  69.9992 223.6290 0002591 265.6108  94.4755 14.98298974 31532,6950.289,96.109,573.955,570.353,0.0
56810.0,STARLINK-6031,PAYLOAD,2023-12-22 00:58:31,14.98277339,0.0001699,69.9997,223.2938,274.7462,85.3503,-0.00050857,-6.147e-05,0.0,0 STARLINK-6031,1 56810U 23078AV  23356.04063996 -.00006147  00000-0 -50857-3 0  9994,2 56810  69.9997 223.2938 0001699 274.7462  85.3503 14.98277339 31817,6950.356,96.11,573.402,571.04,0.0
56810.0,STARLINK-6031,PAYLOAD,2023-12-22 20:12:04,14.98331289,0.000241,70.0006,221.2756,227.2448,132.8509,5.8051e-05,6e-06,0.0,0 STARLINK-6031,1 56810U 23078AV  23356.84171704  .00000600  00000-0  58051-4 0  9990,2 56810  70.0006 221.2756 0002410 227.2448 132.8509 14.98331289 31938,6950.189,96.107,573.729,570.379,0.0
56810.0,STARLINK-6031,PAYLOAD,2023-12-22 21:48:12,14.98324516,0.000259,70.0006,221.1071,219.1779,140.9193,-2.588e-05,-4.02e-06,0.0,0 STARLINK-6031,1 56810U 23078AV  23356.90848297 -.00000402  00000-0 -25880-4 0  9991,2 56810  70.0006 221.1071 0002590 219.1779 140.9193 14.98324516 31689,6950.21,96.107,573.875,570.275,0.0
56810.0,STARLINK-6031,PAYLOAD,2023-12-23 01:00:28,14.98331071,0.0002301,70.0001,220.7694,237.5629,122.5308,5.0852e-05,5.14e-06,0.0,0 STARLINK-6031,1 56810U 23078AV  23357.04199810  .00000514  00000-0  50852-4 0  9996,2 56810  70.0001 220.7694 0002301 237.5629 122.5308 14.98331071 31709,6950.19,96.107,573.654,570.455,0.0
56810.0,STARLINK-6031,PAYLOAD,2023-12-23 18:37:56,14.98327024,0.0002098,69.9996,218.914,255.7591,104.3335,0.00045941,5.392e-05,0.0,0 STARLINK-6031,1 56810U 23078AV  23357.77634634  .00005392  00000-0  45941-3 0  9995,2 56810  69.9996 218.9140 0002098 255.7591 104.3335 14.98327024 32079,6950.202,96.107,573.525,570.609,0.0
56810.0,STARLINK-6031,PAYLOAD,2023-12-23 21:50:12,14.98327428,0.0002349,69.9993,218.5789,258.3708,101.7187,0.00046243,5.428e-05,0.0,0 STARLINK-6031,1 56810U 23078AV  23357.90986626  .00005428  00000-0  46243-3 0  9997,2 56810  69.9993 218.5789 0002349 258.3708 101.7187 14.98327428 31836,6950.201,96.107,573.698,570.433,0.0
56810.0,STARLINK-6031,PAYLOAD,2023-12-24 01:02:28,14.98332747,0.0002449,69.9989,218.2417,261.6211,98.467,0.00047658,5.598e-05,0.0,0 STARLINK-6031,1 56810U 23078AV  23358.04338273  .00005598  00000-0  47658-3 0  9991,2 56810  69.9989 218.2417 0002449 261.6211  98.4670 14.98332747 31854,6950.184,96.107,573.751,570.347,0.0
56810.0,STARLINK-6031,PAYLOAD,2023-12-24 20:16:05,14.98341403,0.0002528,69.9996,216.2258,226.291,133.804,-1.2523e-05,-2.42e-06,0.0,0 STARLINK-6031,1 56810U 23078AV  23358.84450842 -.00000242  00000-0 -12523-4 0  9993,2 56810  69.9996 216.2258 0002528 226.2910 133.8040 14.98341403 32231,6950.158,96.106,573.78,570.266,0.0
56810.0,STARLINK-6031,PAYLOAD,2023-12-24 21:52:13,14.98340487,0.0002525,70.0,216.0584,223.6087,136.4873,-4.2437e-05,-5.99e-06,0.0,0 STARLINK-6031,1 56810U 23078AV  23358.91126975 -.00000599  00000-0 -42437-4 0  9990,2 56810  70.0000 216.0584 0002525 223.6087 136.4873 14.98340487 31988,6950.16,96.106,573.78,570.271,0.0
56810.0,STARLINK-6031,PAYLOAD,2023-12-25 01:04:30,14.98331683,0.0002162,70.0,215.7194,242.4609,117.6331,6.8234e-05,7.21e-06,0.0,0 STARLINK-6031,1 56810U 23078AV  23359.04479216  .00000721  00000-0  68234-4 0  9992,2 56810  70.0000 215.7194 0002162 242.4609 117.6331 14.98331683 32267,6950.188,96.107,573.555,570.55,0.0
56810.0,STARLINK-6031,PAYLOAD,2023-12-25 20:18:06,14.9836485,0.0002183,69.9996,213.7001,216.8044,143.2966,-0.00058795,-7.107e-05,0.0,0 STARLINK-6031,1 56810U 23078AV  23359.84590355 -.00007107  00000-0 -58795-3 0  9995,2 56810  69.9996 213.7001 0002183 216.8044 143.2966 14.98364850 32388,6950.085,96.105,573.467,570.433,0.0
56810.0,STARLINK-6031,PAYLOAD,2023-12-25 21:54:14,14.98352067,0.0002077,69.9996,213.5319,220.8365,139.2639,-0.00042388,-5.149e-05,0.0,0 STARLINK-6031,1 56810U 23078AV  23359.91266623 -.00005149  00000-0 -42388-3 0  9996,2 56810  69.9996 213.5319 0002077 220.8365 139.2639 14.98352067 32133,6950.125,96.106,573.433,570.546,0.0
56810.0,STARLINK-6031,PAYLOAD,2023-12-25 23:30:22,14.98336965,0.0002273,69.9996,213.3634,222.6045,137.4938,-0.00017755,-2.211e-05,0.0,0 STARLINK-6031,1 56810U 23078AV  23359.97942861 -.00002211  00000-0 -17755-3 0  9994,2 56810  69.9996 213.3634 0002273 222.6045 137.4938 14.98336965 32405,6950.171,96.107,573.616,570.457,0.0
56810.0,STARLINK-6031,PAYLOAD,2023-12-26 13:55:34,14.98332039,0.0002195,69.9996,211.8484,239.956,120.1381,-2.607e-05,-4.04e-06,0.0,0 STARLINK-6031,1 56810U 23078AV  23360.58026547 -.00000404  00000-0 -26070-4 0  9990,2 56810  69.9996 211.8484 0002195 239.9560 120.1381 14.98332039 32237,6950.187,96.107,573.577,570.526,0.0
56810.0,STARLINK-6031,PAYLOAD,2023-12-26 21:56:15,14.98330298,0.0002173,69.9996,211.0068,241.9094,118.1845,-4.1097e-05,-5.83e-06,0.0,0 STARLINK-6031,1 56810U 23078AV  23360.91406663 -.00000583  00000-0 -41097-4 0  9992,2 56810  69.9996 211.0068 0002173 241.9094 118.1845 14.98330298 32280,6950.192,96.107,573.567,570.547,0.0
